NORAD_CAT_ID,OBJECT_NAME,OBJECT_TYPE,EPOCH,MEAN_MOTION,ECCENTRICITY,INCLINATION,RA_OF_ASC_NODE,ARG_OF_PERICENTER,MEAN_ANOMALY,BSTAR,MEAN_MOTION_DOT,MEAN_MOTION_DDOT,TLE_LINE0,TLE_LINE1,TLE_LINE2,SEMIMAJOR_AXIS,PERIOD,APOGEE,PERIGEE,DECAYED
51104.0,STARLINK-3366,PAYLOAD,2023-02-13 08:31:08,15.08832932,0.0001311,53.2137,278.5032,86.2938,273.8204,7.7293e-05,9.42e-06,0.0,0 STARLINK-3366,1 51104U 22005A   23044.35496278  .00000942  00000-0  77293-4 0  9994,2 51104  53.2137 278.5032 0001311  86.2938 273.8204 15.08832932 59745,6917.902,95.438,540.674,538.86,0.0
51104.0,STARLINK-3366,PAYLOAD,2023-02-14 00:24:59,15.08846157,0.0001032,53.2141,275.5302,82.2517,277.8592,0.00026757,3.974e-05,0.0,0 STARLINK-3366,1 51104U 22005A   23045.01735990  .00003974  00000-0  26757-3 0  9991,2 51104  53.2141 275.5302 0001032  82.2517 277.8592 15.08846157 60960,6917.862,95.437,540.44,539.013,0.0
51104.0,STARLINK-3366,PAYLOAD,2023-02-14 14:43:28,15.08837247,0.0001155,53.2111,272.8532,77.5108,282.6013,0.00016299,2.307e-05,0.0,0 STARLINK-3366,1 51104U 22005A   23045.61352475  .00002307  00000-0  16299-3 0  9999,2 51104  53.2111 272.8532 0001155  77.5108 282.6013 15.08837247 59938,6917.889,95.438,540.553,538.955,0.0
51104.0,STARLINK-3366,PAYLOAD,2023-02-15 01:51:09,15.08852164,0.0001248,53.2148,270.7716,75.0476,285.0654,0.00022808,3.345e-05,0.0,0 STARLINK-3366,1 51104U 22005A   23046.07719718  .00003345  00000-0  22808-3 0  9993,2 51104  53.2148 270.7716 0001248  75.0476 285.0654 15.08852164 61120,6917.843,95.437,540.572,538.845,0.0
51104.0,STARLINK-3366,PAYLOAD,2023-02-15 08:12:42,15.08840496,0.0001163,53.2139,269.5826,83.8754,276.2371,8.809e-05,1.114e-05,0.0,0 STARLINK-3366,1 51104U 22005A   23046.34216369  .00001114  00000-0  88090-4 0  9995,2 51104  53.2139 269.5826 0001163  83.8754 276.2371 15.08840496 61167,6917.879,95.438,540.548,538.939,0.0
51104.0,STARLINK-3366,PAYLOAD,2023-02-15 20:55:47,15.0885212,0.0001533,53.2135,267.2046,88.0886,272.0282,0.00027198,4.045e-05,0.0,0 STARLINK-3366,1 51104U 22005A   23046.87207767  .00004045  00000-0  27198-3 0  9992,2 51104  53.2135 267.2046 0001533  88.0886 272.0282 15.08852120 60123,6917.843,95.437,540.769,538.648,0.0
51104.0,STARLINK-3366,PAYLOAD,2023-02-16 01:41:56,15.0886505,0.0001397,53.2134,266.3118,80.6595,279.4555,0.00044792,6.853e-05,0.0,0 STARLINK-3366,1 51104U 22005A   23047.07079016  .00006853  00000-0  44792-3 0  9997,2 51104  53.2134 266.3118 0001397  80.6595 279.4555 15.08865050 61272,6917.804,95.436,540.635,538.702,0.0
51104.0,STARLINK-3366,PAYLOAD,2023-02-16 08:03:30,15.08831751,0.0001613,53.2125,265.123,73.2571,286.8598,-0.00011401,-2.102e-05,0.0,0 STARLINK-3366,1 51104U 22005A   23047.33576495 -.00002102  00000-0 -11401-3 0  9995,2 51104  53.2125 265.1230 0001613  73.2571 286.8598 15.08831751 61312,6917.906,95.438,540.886,538.655,0.0
51104.0,STARLINK-3366,PAYLOAD,2023-02-16 20:46:34,15.08841858,0.0001142,53.2135,262.7424,68.6527,291.4587,8.5464e-05,1.073e-05,0.0,0 STARLINK-3366,1 51104U 22005A   23047.86568182  .00001073  00000-0  85464-4 0  9992,2 51104  53.2135 262.7424 0001142  68.6527 291.4587 15.08841858 60270,6917.875,95.437,540.53,538.95,0.0
51104.0,STARLINK-3366,PAYLOAD,2023-02-16 22:21:57,15.08845009,0.0001144,53.2135,262.445,67.2502,292.8611,0.0001583,2.233e-05,0.0,0 STARLINK-3366,1 51104U 22005A   23047.93192078  .00002233  00000-0  15830-3 0  9995,2 51104  53.2135 262.4450 0001144  67.2502 292.8611 15.08845009 61407,6917.865,95.437,540.521,538.939,0.0
51104.0,STARLINK-3366,PAYLOAD,2023-02-17 01:32:43,15.08853061,0.0001154,53.214,261.8497,74.7414,285.3706,0.00030389,4.554e-05,0.0,0 STARLINK-3366,1 51104U 22005A   23048.06439697  .00004554  00000-0  30389-3 0  9995,2 51104  53.2140 261.8497 0001154  74.7414 285.3706 15.08853061 61424,6917.84,95.437,540.504,538.907,0.0
51104.0,STARLINK-3366,PAYLOAD,2023-02-17 19:01:58,15.08849287,0.0001247,53.2128,258.5792,78.3945,281.7187,0.00024166,3.561e-05,0.0,0 STARLINK-3366,1 51104U 22005A   23048.79303729  .00003561  00000-0  24166-3 0  9994,2 51104  53.2128 258.5792 0001247  78.3945 281.7187 15.08849287 61533,6917.852,95.437,540.58,538.854,0.0
51104.0,STARLINK-3366,PAYLOAD,2023-02-17 20:37:21,15.0885365,0.0001161,53.2139,258.2817,78.1173,281.9949,0.0003112,4.67e-05,0.0,0 STARLINK-3366,1 51104U 22005A   23048.85927480  .00004670  00000-0  31120-3 0  9997,2 51104  53.2139 258.2817 0001161  78.1173 281.9949 15.08853650 60420,6917.839,95.437,540.507,538.901,0.0
51104.0,STARLINK-3366,PAYLOAD,2023-02-18 01:23:30,15.08860968,0.0001205,53.2138,257.3891,74.4271,285.6854,0.00055694,8.592e-05,0.0,0 STARLINK-3366,1 51104U 22005A   23049.05799262  .00008592  00000-0  55694-3 0  9994,2 51104  53.2138 257.3891 0001205  74.4271 285.6854 15.08860968 61571,6917.816,95.436,540.515,538.848,0.0
51104.0,STARLINK-3366,PAYLOAD,2023-02-18 20:28:08,15.0884091,0.0001177,53.2139,253.8222,76.0208,284.0915,6.6943e-05,7.78e-06,0.0,0 STARLINK-3366,1 51104U 22005A   23049.85288009  .00000778  00000-0  66943-4 0  9992,2 51104  53.2139 253.8222 0001177  76.0208 284.0915 15.08840910 61696,6917.878,95.437,540.557,538.928,0.0
51104.0,STARLINK-3366,PAYLOAD,2023-02-19 12:22:00,15.08835202,0.0001202,53.214,250.8465,77.8646,282.2481,0.00037114,5.623e-05,0.0,0 STARLINK-3366,1 51104U 22005A   23050.51528308  .00005623  00000-0  37114-3 0  9997,2 51104  53.2140 250.8465 0001202  77.8646 282.2481 15.08835202 60671,6917.895,95.438,540.592,538.929,0.0
51104.0,STARLINK-3366,PAYLOAD,2023-02-19 21:54:19,15.08823606,9.65e-05,53.2138,249.0622,77.2482,282.8618,-0.00024967,-4.257e-05,0.0,0 STARLINK-3366,1 51104U 22005A   23050.91273074 -.00004257  00000-0 -24967-3 0  9994,2 51104  53.2138 249.0622 0000965  77.2482 282.8618 15.08823606 61854,6917.93,95.439,540.463,539.128,0.0
51104.0,STARLINK-3366,PAYLOAD,2023-02-20 05:51:16,15.08830443,9.82e-05,53.2151,247.5753,76.8762,283.234,-8.6759e-05,-1.668e-05,0.0,0 STARLINK-3366,1 51104U 22005A   23051.24393641 -.00001668  00000-0 -86759-4 0  9995,2 51104  53.2151 247.5753 0000982  76.8762 283.2340 15.08830443 60787,6917.91,95.438,540.454,539.095,0.0
51104.0,STARLINK-3366,PAYLOAD,2023-02-21 00:55:53,15.08834138,8.85e-05,53.2149,244.0068,77.6989,282.4102,9.689e-05,1.254e-05,0.0,0 STARLINK-3366,1 51104U 22005A   23052.03881777  .00001254  00000-0  96890-4 0  9991,2 51104  53.2149 244.0068 0000885  77.6989 282.4102 15.08834138 62028,6917.898,95.438,540.376,539.151,0.0
51104.0,STARLINK-3366,PAYLOAD,2023-02-21 20:00:31,15.08848887,9.13e-05,53.2137,240.4384,77.8324,282.277,0.0004836,7.419e-05,0.0,0 STARLINK-3366,1 51104U 22005A   23052.83369406  .00007419  00000-0  48360-3 0  9996,2 51104  53.2137 240.4384 0000913  77.8324 282.2770 15.08848887 61027,6917.853,95.437,540.35,539.087,0.0
51104.0,STARLINK-3366,PAYLOAD,2023-02-22 00:46:40,15.08862454,9.04e-05,53.213,239.5461,75.1171,284.9921,0.00078055,0.00012164,0.0,0 STARLINK-3366,1 51104U 22005A   23053.03241207  .00012164  00000-0  78055-3 0  9994,2 51104  53.2130 239.5461 0000904  75.1171 284.9921 15.08862454 62176,6917.812,95.436,540.302,539.051,0.0
51104.0,STARLINK-3366,PAYLOAD,2023-02-22 11:54:22,15.08851805,0.0001,53.2139,237.4645,80.0636,280.0469,0.00029683,4.441e-05,0.0,0 STARLINK-3366,1 51104U 22005A   23053.49609127  .00004441  00000-0  29683-3 0  9995,2 51104  53.2139 237.4645 0001000  80.0636 280.0469 15.08851805 62245,6917.844,95.437,540.401,539.018,0.0
51104.0,STARLINK-3366,PAYLOAD,2023-02-22 18:15:54,15.08855609,9.73e-05,53.2138,236.2753,77.7594,282.3507,0.00031737,4.769e-05,0.0,0 STARLINK-3366,1 51104U 22005A   23053.76104753  .00004769  00000-0  31737-3 0  9996,2 51104  53.2138 236.2753 0000973  77.7594 282.3507 15.08855609 61169,6917.833,95.437,540.371,539.025,0.0
51104.0,STARLINK-3366,PAYLOAD,2023-02-23 05:23:36,15.08853473,6.37e-05,53.2128,234.1929,70.8835,289.2226,0.00016833,2.393e-05,0.0,0 STARLINK-3366,1 51104U 22005A   23054.22472428  .00002393  00000-0  16833-3 0  9996,2 51104  53.2128 234.1929 0000637  70.8835 289.2226 15.08853473 61238,6917.839,95.437,540.145,539.264,0.0
51104.0,STARLINK-3366,PAYLOAD,2023-02-23 21:17:28,15.08831476,0.0001218,53.2141,231.219,80.7926,279.3204,-0.00015871,-2.812e-05,0.0,0 STARLINK-3366,1 51104U 22005A   23054.88713635 -.00002812  00000-0 -15871-3 0  9995,2 51104  53.2141 231.2190 0001218  80.7926 279.3204 15.08831476 62458,6917.906,95.438,540.614,538.929,0.0
51104.0,STARLINK-3366,PAYLOAD,2023-02-24 11:35:56,15.08840074,0.0001232,53.2137,228.5425,79.9428,280.1703,0.00032897,4.952e-05,0.0,0 STARLINK-3366,1 51104U 22005A   23055.48329826  .00004952  00000-0  32897-3 0  9999,2 51104  53.2137 228.5425 0001232  79.9428 280.1703 15.08840074 61420,6917.88,95.438,540.597,538.893,0.0
51104.0,STARLINK-3366,PAYLOAD,2023-02-24 21:08:15,15.08851864,0.0001259,53.2143,226.7585,75.8053,284.3078,0.00094352,0.00014765,0.0,0 STARLINK-3366,1 51104U 22005A   23055.88073958  .00014765  00000-0  94352-3 0  9992,2 51104  53.2143 226.7585 0001259  75.8053 284.3078 15.08851864 62603,6917.844,95.437,540.58,538.838,0.0
51104.0,STARLINK-3366,PAYLOAD,2023-02-25 13:02:06,15.08861856,0.0001298,53.2145,223.7846,75.1567,284.9569,0.00063825,9.89e-05,0.0,0 STARLINK-3366,1 51104U 22005A   23056.54313270  .00009890  00000-0  63825-3 0  9994,2 51104  53.2145 223.7846 0001298  75.1567 284.9569 15.08861856 61587,6917.814,95.436,540.577,538.781,0.0
51104.0,STARLINK-3366,PAYLOAD,2023-02-25 20:59:01,15.08881335,0.0001315,53.2148,222.2977,75.7919,284.3219,0.0011275,0.00017722,0.0,0 STARLINK-3366,1 51104U 22005A   23056.87432399  .00017722  00000-0  11275-2 0  9998,2 51104  53.2148 222.2977 0001315  75.7919 284.3219 15.08881335 61632,6917.754,95.435,540.529,538.709,0.0
51104.0,STARLINK-3366,PAYLOAD,2023-02-25 22:34:24,15.08883638,0.0001314,53.2147,222.0002,75.6043,284.5095,0.0011398,0.0001792,0.0,0 STARLINK-3366,1 51104U 22005A   23056.94056212  .00017920  00000-0  11398-2 0  9998,2 51104  53.2147 222.0002 0001314  75.6043 284.5095 15.08883638 62761,6917.747,95.435,540.521,538.703,0.0
